[{"OBJECT_NAME":"STARLINK-4403","OBJECT_ID":"2022-084J","EPOCH":"2026-03-09T16:50:05.021664","MEAN_MOTION":15.01260769,"ECCENTRICITY":0.00034307,"INCLINATION":97.6019,"RA_OF_ASC_NODE":130.2204,"ARG_OF_PERICENTER":69.6023,"MEAN_ANOMALY":290.5569,"EPHEMERIS_TYPE":0,"CLASSIFICATION_TYPE":"U","NORAD_CAT_ID":53197,"ELEMENT_SET_NO":999,"REV_AT_EPOCH":19931,"BSTAR":3.9295029e-5,"MEAN_MOTION_DOT":4.46e-6,"MEAN_MOTION_DDOT":0},{"OBJECT_NAME":"FENGYUN 1C DEB","OBJECT_ID":"1999-025CKD","EPOCH":"2026-02-28T13:50:26.166336","MEAN_MOTION":14.88090782,"ECCENTRICITY":0.00820173,"INCLINATION":99.4445,"RA_OF_ASC_NODE":2.7077,"ARG_OF_PERICENTER":355.7359,"MEAN_ANOMALY":4.3144,"EPHEMERIS_TYPE":0,"CLASSIFICATION_TYPE":"U","NORAD_CAT_ID":31878,"ELEMENT_SET_NO":999,"REV_AT_EPOCH":99250,"BSTAR":0.001844343,"MEAN_MOTION_DOT":0.00018017,"MEAN_MOTION_DDOT":0}]
